ONEWEB-0205             
1 48226U 21031S   24235.54289898 -.00000151  00000+0 -44249-3 0  9992
2 48226  87.8922  61.6910 0001899  92.2679 267.8668 13.14501435161081
ONEWEB-0206             
1 48227U 21031T   24235.59205916  .00000244  00000+0  62246-3 0  9995
2 48227  87.8920  61.6691 0001963  88.3441 271.7914 13.14499539161046
ONEWEB-0182             
1 48228U 21031U   24235.51119787  .00000230  00000+0  58658-3 0  9995
2 48228  87.8924  61.7155 0001837  83.3238 276.8101 13.14503048161243
ONEWEB-0186             
1 48229U 21031V   24235.52229575  .00000164  00000+0  40904-3 0  9995
2 48229  87.8924  61.6763 0001724  89.1797 270.9530 13.14503577161199
ONEWEB-0181             
1 48230U 21031W   24235.57621282  .00000205  00000+0  51835-3 0  9994
2 48230  87.8921  61.7357 0001732  95.4953 264.6374 13.14503003161056
ONEWEB-0188             
1 48231U 21031X   24235.53815001 -.00000095  00000+0 -29042-3 0  9999
2 48231  87.8923  61.7383 0001824  89.0812 271.0526 13.14500703160956
ONEWEB-0220             
1 48232U 21031Y   24235.57779797  .00000141  00000+0  34603-3 0  9994
2 48232  87.8915  61.6912 0002072  92.4078 267.7289 13.14502871161220
ONEWEB-0165             
1 48233U 21031Z   24235.53022530  .00000020  00000+0  20659-4 0  9990
2 48233  87.8924  61.7216 0001813  93.6614 266.4723 13.14502537161172
